NORAD_CAT_ID,OBJECT_NAME,OBJECT_TYPE,EPOCH,MEAN_MOTION,ECCENTRICITY,INCLINATION,RA_OF_ASC_NODE,ARG_OF_PERICENTER,MEAN_ANOMALY,BSTAR,MEAN_MOTION_DOT,MEAN_MOTION_DDOT,TLE_LINE0,TLE_LINE1,TLE_LINE2,SEMIMAJOR_AXIS,PERIOD,APOGEE,PERIGEE,DECAYED
53726.0,STARLINK-4697,PAYLOAD,2023-11-21 09:59:56,15.08842273,0.0001431,53.2191,61.6411,82.4812,277.6343,4.7092e-05,4.62e-06,0.0,0 STARLINK-4697,1 53726U 22107AC  23325.41662042  .00000462  00000-0  47092-4 0  9993,2 53726  53.2191  61.6411 0001431  82.4812 277.6343 15.08842273 67251,6917.873,95.437,540.728,538.748,0.0
53726.0,STARLINK-4697,PAYLOAD,2023-11-21 13:10:42,15.08848046,0.0001462,53.2188,61.046,82.7754,277.3404,2.6581e-05,1.35e-06,0.0,0 STARLINK-4697,1 53726U 22107AC  23325.54909770  .00000135  00000-0  26581-4 0  9996,2 53726  53.2188  61.0460 0001462  82.7754 277.3404 15.08848046 67739,6917.856,95.437,540.732,538.709,0.0
53726.0,STARLINK-4697,PAYLOAD,2023-11-22 11:26:05,15.08850146,0.0001514,53.2191,56.8832,96.438,263.6784,0.00010937,1.454e-05,0.0,0 STARLINK-4697,1 53726U 22107AC  23326.47645148  .00001454  00000-0  10937-3 0  9997,2 53726  53.2191  56.8832 0001514  96.4380 263.6784 15.08850146 67411,6917.849,95.437,540.762,538.667,0.0
53726.0,STARLINK-4697,PAYLOAD,2023-11-22 13:01:28,15.08854803,0.0001548,53.2197,56.5854,100.873,259.2437,0.0001284,1.757e-05,0.0,0 STARLINK-4697,1 53726U 22107AC  23326.54268823  .00001757  00000-0  12840-3 0  9997,2 53726  53.2197  56.5854 0001548 100.8730 259.2437 15.08854803 67885,6917.835,95.437,540.771,538.629,0.0
53726.0,STARLINK-4697,PAYLOAD,2023-11-23 11:16:52,15.08842402,0.000181,53.2199,52.4218,121.9525,238.1644,3.6407e-05,2.91e-06,0.0,0 STARLINK-4697,1 53726U 22107AC  23327.47005547  .00000291  00000-0  36407-4 0  9990,2 53726  53.2199  52.4218 0001810 121.9525 238.1644 15.08842402 67567,6917.873,95.437,540.99,538.486,0.0
53726.0,STARLINK-4697,PAYLOAD,2023-11-24 11:07:41,15.08830993,0.0001445,53.2195,47.961,112.9402,247.1743,-0.00010686,-1.988e-05,0.0,0 STARLINK-4697,1 53726U 22107AC  23328.46367235 -.00001988  00000-0 -10686-3 0  9991,2 53726  53.2195  47.9610 0001445 112.9402 247.1743 15.08830993 67715,6917.908,95.438,540.773,538.773,0.0
53726.0,STARLINK-4697,PAYLOAD,2023-11-24 14:18:27,15.08832674,0.000124,53.2189,47.3638,95.8945,264.2189,-9.3305e-05,-1.772e-05,0.0,0 STARLINK-4697,1 53726U 22107AC  23328.59615234 -.00001772  00000-0 -93305-4 0  9991,2 53726  53.2189  47.3638 0001240  95.8945 264.2189 15.08832674 68191,6917.903,95.438,540.626,538.91,0.0
53726.0,STARLINK-4697,PAYLOAD,2023-11-25 14:09:13,15.08855868,0.0001299,53.219,42.9033,96.0999,264.0142,0.00022281,3.261e-05,0.0,0 STARLINK-4697,1 53726U 22107AC  23329.58973441  .00003261  00000-0  22281-3 0  9995,2 53726  53.2190  42.9033 0001299  96.0999 264.0142 15.08855868 68343,6917.832,95.437,540.596,538.798,0.0
53726.0,STARLINK-4697,PAYLOAD,2023-11-25 23:41:32,15.08843345,0.0001658,53.2172,41.1233,54.2052,305.9094,0.00032404,4.873e-05,0.0,0 STARLINK-4697,1 53726U 22107AC  23329.98718147  .00004873  00000-0  32404-3 0  9997,2 53726  53.2172  41.1233 0001658  54.2052 305.9094 15.08843345 67944,6917.87,95.437,540.882,538.588,0.0
53726.0,STARLINK-4697,PAYLOAD,2023-11-26 13:59:59,15.08876283,0.0001462,53.2195,38.446,86.5389,273.577,0.00049003,7.527e-05,0.0,0 STARLINK-4697,1 53726U 22107AC  23330.58332592  .00007527  00000-0  49003-3 0  9993,2 53726  53.2195  38.4460 0001462  86.5389 273.5770 15.08876283 68493,6917.769,95.435,540.646,538.623,0.0
53726.0,STARLINK-4697,PAYLOAD,2023-11-27 04:18:30,15.08806624,0.000105,53.2193,35.7672,73.0962,287.0145,-0.00070075,-0.00011412,0.0,0 STARLINK-4697,1 53726U 22107AC  23331.17952472 -.00011412  00000-0 -70075-3 0  9997,2 53726  53.2193  35.7672 0001050  73.0962 287.0145 15.08806624 68125,6917.982,95.44,540.574,539.121,0.0
53726.0,STARLINK-4697,PAYLOAD,2023-11-27 10:40:03,15.08810293,0.0001647,53.2187,34.5829,76.6467,283.4709,-0.00055163,-9.049e-05,0.0,0 STARLINK-4697,1 53726U 22107AC  23331.44448732 -.00009049  00000-0 -55163-3 0  9990,2 53726  53.2187  34.5829 0001647  76.6467 283.4709 15.08810293 68167,6917.971,95.439,540.976,538.697,0.0
53726.0,STARLINK-4697,PAYLOAD,2023-11-28 10:30:48,15.08856956,0.0001957,53.2202,30.1253,99.8486,260.2727,0.00013423,1.85e-05,0.0,0 STARLINK-4697,1 53726U 22107AC  23332.43806548  .00001850  00000-0  13423-3 0  9996,2 53726  53.2202  30.1253 0001957  99.8486 260.2727 15.08856956 68316,6917.829,95.436,541.047,538.34,0.0
53726.0,STARLINK-4697,PAYLOAD,2023-11-28 13:41:34,15.08867617,0.0001545,53.2201,29.5218,87.7771,272.3398,5.6718e-05,6.15e-06,0.0,0 STARLINK-4697,1 53726U 22107AC  23332.57053819  .00000615  00000-0  56718-4 0  9999,2 53726  53.2201  29.5218 0001545  87.7771 272.3398 15.08867617 68790,6917.796,95.436,540.73,538.592,0.0
53726.0,STARLINK-4697,PAYLOAD,2023-11-29 04:00:04,15.0882292,0.0001438,53.2194,26.8508,63.2053,296.9086,0.00035824,5.415e-05,0.0,0 STARLINK-4697,1 53726U 22107AC  23333.16672368  .00005415  00000-0  35824-3 0  9998,2 53726  53.2194  26.8508 0001438  63.2053 296.9086 15.08822920 68420,6917.933,95.439,540.792,538.803,0.0
53726.0,STARLINK-4697,PAYLOAD,2023-11-29 10:21:37,15.0884391,0.0001854,53.219,25.6613,83.2075,276.9128,0.00053341,8.212e-05,0.0,0 STARLINK-4697,1 53726U 22107AC  23333.43168223  .00008212  00000-0  53341-3 0  9990,2 53726  53.2190  25.6613 0001854  83.2075 276.9128 15.08843910 68469,6917.868,95.437,541.016,538.451,0.0
53726.0,STARLINK-4697,PAYLOAD,2023-11-30 10:12:23,15.08850545,0.0001753,53.219,21.1967,88.2823,271.837,-2.9719e-05,-7.61e-06,0.0,0 STARLINK-4697,1 53726U 22107AC  23334.42527251 -.00000761  00000-0 -29719-4 0  9996,2 53726  53.2190  21.1967 0001753  88.2823 271.8370 15.08850545 68618,6917.848,95.437,540.926,538.5,0.0
53726.0,STARLINK-4697,PAYLOAD,2023-12-01 03:41:38,15.08839161,0.0001794,53.2192,17.9286,95.5126,264.6071,-0.00011589,-2.132e-05,0.0,0 STARLINK-4697,1 53726U 22107AC  23335.15391629 -.00002132  00000-0 -11589-3 0  9994,2 53726  53.2192  17.9286 0001794  95.5126 264.6071 15.08839161 68720,6917.883,95.438,540.989,538.507,0.0
53726.0,STARLINK-4697,PAYLOAD,2023-12-01 08:27:47,15.08845563,0.0001808,53.2202,17.0364,95.7844,264.3354,4.6608e-06,-2.14e-06,0.0,0 STARLINK-4697,1 53726U 22107AC  23335.35263698 -.00000214  00000-0  46608-5 0  9990,2 53726  53.2202  17.0364 0001808  95.7844 264.3354 15.08845563 69214,6917.863,95.437,540.979,538.478,0.0
53726.0,STARLINK-4697,PAYLOAD,2023-12-02 11:29:18,15.08883827,0.0001794,53.2189,11.9816,103.125,256.9943,0.00070281,0.00010928,0.0,0 STARLINK-4697,1 53726U 22107AC  23336.47868999  .00010928  00000-0  70281-3 0  9993,2 53726  53.2189  11.9816 0001794 103.1250 256.9943 15.08883827 68925,6917.746,95.435,540.852,538.37,0.0
53726.0,STARLINK-4697,PAYLOAD,2023-12-03 11:20:09,15.08795483,0.0001833,53.2192,7.5225,83.3622,276.7579,-6.266e-05,-1.284e-05,0.0,0 STARLINK-4697,1 53726U 22107AC  23337.47233680 -.00001284  00000-0 -62660-4 0  9997,2 53726  53.2192   7.5225 0001833  83.3622 276.7579 15.08795483 69072,6918.016,95.44,541.15,538.613,0.0
53726.0,STARLINK-4697,PAYLOAD,2023-12-04 00:03:14,15.08819945,0.0002173,53.2182,5.1412,123.1707,236.9494,0.0021367,0.00033863,0.0,0 STARLINK-4697,1 53726U 22107AC  23338.00225497  .00033863  00000-0  21367-2 0  9997,2 53726  53.2182   5.1412 0002173 123.1707 236.9494 15.08819945 69151,6917.942,95.439,541.31,538.303,0.0
53726.0,STARLINK-4697,PAYLOAD,2023-12-04 11:10:56,15.08871242,0.0001816,53.2172,3.0608,78.4541,281.6655,0.0014725,0.00023245,0.0,0 STARLINK-4697,1 53726U 22107AC  23338.46593519  .00023245  00000-0  14725-2 0  9993,2 53726  53.2172   3.0608 0001816  78.4541 281.6655 15.08871242 69687,6917.785,95.436,540.906,538.394,0.0
53726.0,STARLINK-4697,PAYLOAD,2023-12-05 01:29:24,15.08860796,0.0001801,53.2182,0.385,90.1513,269.9685,0.00034571,5.221e-05,0.0,0 STARLINK-4697,1 53726U 22107AC  23339.06208895  .00005221  00000-0  34571-3 0  9996,2 53726  53.2182   0.3850 0001801  90.1513 269.9685 15.08860796 69315,6917.817,95.436,540.928,538.436,0.0
53726.0,STARLINK-4697,PAYLOAD,2023-12-05 07:50:56,15.08864699,0.0001945,53.2176,359.1936,104.6492,255.4716,0.00037356,5.666e-05,0.0,0 STARLINK-4697,1 53726U 22107AC  23339.32704392  .00005666  00000-0  37356-3 0  9995,2 53726  53.2176 359.1936 0001945 104.6492 255.4716 15.08864699 69810,6917.805,95.436,541.015,538.324,0.0
53726.0,STARLINK-4697,PAYLOAD,2023-12-06 04:30:57,15.08855305,0.0001918,53.2186,355.3272,95.056,265.0651,0.00019133,2.759e-05,0.0,0 STARLINK-4697,1 53726U 22107AC  23340.18816026  .00002759  00000-0  19133-3 0  9992,2 53726  53.2186 355.3272 0001918  95.0560 265.0651 15.08855305 69483,6917.834,95.437,541.025,538.372,0.0
53726.0,STARLINK-4697,PAYLOAD,2023-12-06 07:41:43,15.08855042,0.0002073,53.2185,354.7322,107.323,252.799,0.00014578,2.034e-05,0.0,0 STARLINK-4697,1 53726U 22107AC  23340.32063884  .00002034  00000-0  14578-3 0  9998,2 53726  53.2185 354.7322 0002073 107.3230 252.7990 15.08855042 69965,6917.834,95.437,541.133,538.265,0.0
53726.0,STARLINK-4697,PAYLOAD,2023-12-07 04:21:44,15.08833591,0.0002433,53.2187,350.8691,110.4697,249.6557,0.00015934,2.248e-05,0.0,0 STARLINK-4697,1 53726U 22107AC  23341.18176767  .00002248  00000-0  15934-3 0  9992,2 53726  53.2187 350.8691 0002433 110.4697 249.6557 15.08833591 69638,6917.9,95.438,541.448,538.082,0.0
53726.0,STARLINK-4697,PAYLOAD,2023-12-07 07:32:30,15.08840298,0.0002041,53.2196,350.2743,104.1285,255.9934,-4.1103e-05,-9.42e-06,0.0,0 STARLINK-4697,1 53726U 22107AC  23341.31424650 -.00000942  00000-0 -41103-4 0  9993,2 53726  53.2196 350.2743 0002041 104.1285 255.9934 15.08840298 70114,6917.879,95.438,541.156,538.333,0.0
53726.0,STARLINK-4697,PAYLOAD,2023-12-08 10:34:03,15.0884254,0.0002055,53.219,345.218,104.2478,255.8742,5.6344e-05,6.09e-06,0.0,0 STARLINK-4697,1 53726U 22107AC  23342.44032121  .00000609  00000-0  56344-4 0  9997,2 53726  53.2190 345.2180 0002055 104.2478 255.8742 15.08842540 69821,6917.873,95.437,541.159,538.316,0.0
